{"type": "FeatureCollection", "features": [ {"type": "Feature", "properties": {"norad_id": 31212, "name": "FENGYUN 1C DEB", "group": "fengyun-1c-debris", "lat": 1.9188315826442697, "lon": 13.186157989192072, "alt_km": 905.3582059733062, "timestamp": "2025-12-08T03:50:07.278090+00:00", "meta": {"OBJECT_NAME": "FENGYUN 1C DEB", "OBJECT_ID": "1999-025BKS", "EPOCH": "2025-11-25T01:25:48.692640", "MEAN_MOTION": 14.12981607, "ECCENTRICITY": 0.00745379, "INCLINATION": 99.223, "RA_OF_ASC_NODE": 0.0078, "ARG_OF_PERICENTER": 220.8092, "MEAN_ANOMALY": 138.7482, "EPHEMERIS_TYPE": 0, "CLASSIFICATION_TYPE": "U", "NORAD_CAT_ID": 31212, "ELEMENT_SET_NO": 999, "REV_AT_EPOCH": 95409, "BSTAR": 0.0015990818, "MEAN_MOTION_DOT": 3.014e-05, "MEAN_MOTION_DDOT": 0}, "tle": {"line1": "1 31212U 99025BKS 25329.05959135  .00003014  00000+0  15991-2 0  9996", "line2": "2 31212  99.2230   0.0078 0074537 220.8092 138.7482 14.12981607954099"}}, "geometry": {"type": "Point", "coordinates": [13.186157989192072, 1.9188315826442697]}}, {"type": "Feature", "properties": {"norad_id": 31215, "name": "FENGYUN 1C DEB", "group": "fengyun-1c-debris", "lat": 3.373199240136028, "lon": -174.53472261072199, "alt_km": 736.665481620119, "timestamp": "2025-12-08T03:50:07.278100+00:00", "meta": {"OBJECT_NAME": "FENGYUN 1C DEB", "OBJECT_ID": "1999-025BKV", "EPOCH": "2025-12-01T19:24:11.403648", "MEAN_MOTION": 14.33696459, "ECCENTRICITY": 0.00702274, "INCLINATION": 99.0744, "RA_OF_ASC_NODE": 179.3473, "ARG_OF_PERICENTER": 355.6358, "MEAN_ANOMALY": 4.4204, "EPHEMERIS_TYPE": 0, "CLASSIFICATION_TYPE": "U", "NORAD_CAT_ID": 31215, "ELEMENT_SET_NO": 999, "REV_AT_EPOCH": 96369, "BSTAR": 0.00097709666, "MEAN_MOTION_DOT": 2.74e-05, "MEAN_MOTION_DDOT": 0}, "tle": {"line1": "1 31215U 99025BKV 25335.80846532  .00002740  00000+0  97710-3 0  9990", "line2": "2 31215  99.0744 179.3473 0070227 355.6358   4.4204 14.33696459963691"}}, "geometry": {"type": "Point", "coordinates": [-174.53472261072199, 3.373199240136028]}}, {"type": "Feature", "properties": {"norad_id": 31217, "name": "FENGYUN 1C DEB", "group": "fengyun-1c-debris", "lat": 62.633944553173386, "lon": -26.91253883501084, "alt_km": 850.5222179529028, "timestamp": "2025-12-08T03:50:07.278109+00:00", "meta": {"OBJECT_NAME": "FENGYUN 1C DEB", "OBJECT_ID": "1999-025BKX", "EPOCH": "2025-12-05T17:55:54.808896", "MEAN_MOTION": 14.1751299, "ECCENTRICITY": 0.0099341, "INCLINATION": 98.6411, "RA_OF_ASC_NODE": 347.8261, "ARG_OF_PERICENTER": 180.1028, "MEAN_ANOMALY": 180.0144, "EPHEMERIS_TYPE": 0, "CLASSIFICATION_TYPE": "U", "NORAD_CAT_ID": 31217, "ELEMENT_SET_NO": 999, "REV_AT_EPOCH": 96249, "BSTAR": 0.00094089819, "MEAN_MOTION_DOT": 1.962e-05, "MEAN_MOTION_DDOT": 0}, "tle": {"line1": "1 31217U 99025BKX 25339.74716214  .00001962  00000+0  94090-3 0  9995", "line2": "2 31217  98.6411 347.8261 0099341 180.1028 180.0144 14.17512990962499"}}, "geometry": {"type": "Point", "coordinates": [-26.91253883501084, 62.633944553173386]}}, {"type": "Feature", "properties": {"norad_id": 31218, "name": "FENGYUN 1C DEB", "group": "fengyun-1c-debris", "lat": 38.85222762623867, "lon": -80.85796547056896, "alt_km": 651.3240738585173, "timestamp": "2025-12-08T03:50:07.278119+00:00", "meta": {"OBJECT_NAME": "FENGYUN 1C DEB", "OBJECT_ID": "1999-025BKY", "EPOCH": "2025-12-07T05:59:35.312064", "MEAN_MOTION": 14.72028804, "ECCENTRICITY": 0.00115394, "INCLINATION": 98.8405, "RA_OF_ASC_NODE": 90.9515, "ARG_OF_PERICENTER": 53.8954, "MEAN_ANOMALY": 306.3318, "EPHEMERIS_TYPE": 0, "CLASSIFICATION_TYPE": "U", "NORAD_CAT_ID": 31218, "ELEMENT_SET_NO": 999, "REV_AT_EPOCH": 97002, "BSTAR": 0.0068681791, "MEAN_MOTION_DOT": 0.00043396, "MEAN_MOTION_DDOT": 0}, "tle": {"line1": "1 31218U 99025BKY 25341.24971426  .00043396  00000+0  68682-2 0  9996", "line2": "2 31218  98.8405  90.9515 0011539  53.8954 306.3318 14.72028804970021"}}, "geometry": {"type": "Point", "coordinates": [-80.85796547056896, 38.85222762623867]}}, {"type": "Feature", "properties": {"norad_id": 31219, "name": "FENGYUN 1C DEB", "group": "fengyun-1c-debris", "lat": -63.595501978751734, "lon": 152.61137577723798, "alt_km": 820.8058793682821, "timestamp": "2025-12-08T03:50:07.278130+00:00", "meta": {"OBJECT_NAME": "FENGYUN 1C DEB", "OBJECT_ID": "1999-025BKZ", "EPOCH": "2025-12-05T23:43:29.788608", "MEAN_MOTION": 14.13732036, "ECCENTRICITY": 0.00788597, "INCLINATION": 99.285, "RA_OF_ASC_NODE": 349.5955, "ARG_OF_PERICENTER": 196.1087, "MEAN_ANOMALY": 163.7575, "EPHEMERIS_TYPE": 0, "CLASSIFICATION_TYPE": "U", "NORAD_CAT_ID": 31219, "ELEMENT_SET_NO": 999, "REV_AT_EPOCH": 95474, "BSTAR": 0.0022200731, "MEAN_MOTION_DOT": 4.278e-05, "MEAN_MOTION_DDOT": 0}, "tle": {"line1": "1 31219U 99025BKZ 25339.98853922  .00004278  00000+0  22201-2 0  9998", "line2": "2 31219  99.2850 349.5955 0078859 196.1087 163.7575 14.13732036954743"}}, "geometry": {"type": "Point", "coordinates": [152.61137577723798, -63.595501978751734]}}, {"type": "Feature", "properties": {"norad_id": 31222, "name": "FENGYUN 1C DEB", "group": "fengyun-1c-debris", "lat": 48.667139226285, "lon": -118.4115933764187, "alt_km": 486.3870735173032, "timestamp": "2025-12-08T03:50:07.278139+00:00", "meta": {"OBJECT_NAME": "FENGYUN 1C DEB", "OBJECT_ID": "1999-025BLC", "EPOCH": "2025-12-06T11:10:57.883872", "MEAN_MOTION": 14.97631862, "ECCENTRICITY": 0.01705422, "INCLINATION": 98.6126, "RA_OF_ASC_NODE": 49.7982, "ARG_OF_PERICENTER": 89.9861, "MEAN_ANOMALY": 272.0901, "EPHEMERIS_TYPE": 0, "CLASSIFICATION_TYPE": "U", "NORAD_CAT_ID": 31222, "ELEMENT_SET_NO": 999, "REV_AT_EPOCH": 99890, "BSTAR": 0.0011414551, "MEAN_MOTION_DOT": 0.00017986, "MEAN_MOTION_DDOT": 0}, "tle": {"line1": "1 31222U 99025BLC 25340.46594773  .00017986  00000+0  11415-2 0  9998", "line2": "2 31222  98.6126  49.7982 0170542  89.9861 272.0901 14.97631862998906"}}, "geometry": {"type": "Point", "coordinates": [-118.4115933764187, 48.667139226285]}}, {"type": "Feature", "properties": {"norad_id": 31223, "name": "FENGYUN 1C DEB", "group": "fengyun-1c-debris", "lat": 61.27256973565196, "lon": -148.10875512742751, "alt_km": 792.4682367102769, "timestamp": "2025-12-08T03:50:07.278149+00:00", "meta": {"OBJECT_NAME": "FENGYUN 1C DEB", "OBJECT_ID": "1999-025BLD", "EPOCH": "2025-12-06T21:54:16.447104", "MEAN_MOTION": 13.77198914, "ECCENTRICITY": 0.0241795, "INCLINATION": 99.0055, "RA_OF_ASC_NODE": 227.5261, "ARG_OF_PERICENTER": 56.1812, "MEAN_ANOMALY": 306.2106, "EPHEMERIS_TYPE": 0, "CLASSIFICATION_TYPE": "U", "NORAD_CAT_ID": 31223, "ELEMENT_SET_NO": 999, "REV_AT_EPOCH": 92648, "BSTAR": 0.0034429228, "MEAN_MOTION_DOT": 4.193e-05, "MEAN_MOTION_DDOT": 0}, "tle": {"line1": "1 31223U 99025BLD 25340.91269036  .00004193  00000+0  34429-2 0  9996", "line2": "2 31223  99.0055 227.5261 0241795  56.1812 306.2106 13.77198914926484"}}, "geometry": {"type": "Point", "coordinates": [-148.10875512742751, 61.27256973565196]}}, {"type": "Feature", "properties": {"norad_id": 31224, "name": "FENGYUN 1C DEB", "group": "fengyun-1c-debris", "lat": 38.546638866931495, "lon": 160.9725156042715, "alt_km": 699.8699758044795, "timestamp": "2025-12-08T03:50:07.278159+00:00", "meta": {"OBJECT_NAME": "FENGYUN 1C DEB", "OBJECT_ID": "1999-025BLE", "EPOCH": "2025-12-07T05:24:06.867936", "MEAN_MOTION": 14.28881555, "ECCENTRICITY": 0.01576901, "INCLINATION": 98.3695, "RA_OF_ASC_NODE": 333.3388, "ARG_OF_PERICENTER": 179.1537, "MEAN_ANOMALY": 197.3036, "EPHEMERIS_TYPE": 0, "CLASSIFICATION_TYPE": "U", "NORAD_CAT_ID": 31224, "ELEMENT_SET_NO": 999, "REV_AT_EPOCH": 69172, "BSTAR": 0.00051563663, "MEAN_MOTION_DOT": 1.444e-05, "MEAN_MOTION_DDOT": 0}, "tle": {"line1": "1 31224U 99025BLE 25341.22507949  .00001444  00000+0  51564-3 0  9996", "line2": "2 31224  98.3695 333.3388 0157690 179.1537 197.3036 14.28881555691727"}}, "geometry": {"type": "Point", "coordinates": [160.9725156042715, 38.546638866931495]}}, {"type": "Feature", "properties": {"norad_id": 31225, "name": "FENGYUN 1C DEB", "group": "fengyun-1c-debris", "lat": 28.488455578493806, "lon": 50.401375603549674, "alt_km": 773.2807475262243, "timestamp": "2025-12-08T03:50:07.278170+00:00", "meta": {"OBJECT_NAME": "FENGYUN 1C DEB", "OBJECT_ID": "1999-025BLF", "EPOCH": "2025-12-07T04:07:31.353024", "MEAN_MOTION": 14.17816325, "ECCENTRICITY": 0.00882198, "INCLINATION": 98.9898, "RA_OF_ASC_NODE": 54.33, "ARG_OF_PERICENTER": 7.4861, "MEAN_ANOMALY": 21.4134, "EPHEMERIS_TYPE": 0, "CLASSIFICATION_TYPE": "U", "NORAD_CAT_ID": 31225, "ELEMENT_SET_NO": 999, "REV_AT_EPOCH": 95743, "BSTAR": 0.0019479029, "MEAN_MOTION_DOT": 4.087e-05, "MEAN_MOTION_DDOT": 0}, "tle": {"line1": "1 31225U 99025BLF 25341.17189066  .00004087  00000+0  19479-2 0  9991", "line2": "2 31225  98.9898  54.3300 0088219   7.4861  21.4134 14.17816325957436"}}, "geometry": {"type": "Point", "coordinates": [50.401375603549674, 28.488455578493806]}}, {"type": "Feature", "properties": {"norad_id": 31226, "name": "FENGYUN 1C DEB", "group": "fengyun-1c-debris", "lat": 44.63492109008858, "lon": -26.152658212115007, "alt_km": 886.335668529663, "timestamp": "2025-12-08T03:50:07.278180+00:00", "meta": {"OBJECT_NAME": "FENGYUN 1C DEB", "OBJECT_ID": "1999-025BLG", "EPOCH": "2025-12-06T17:57:16.149312", "MEAN_MOTION": 14.2667576, "ECCENTRICITY": 0.01264653, "INCLINATION": 98.3501, "RA_OF_ASC_NODE": 340.838, "ARG_OF_PERICENTER": 213.6965, "MEAN_ANOMALY": 145.613, "EPHEMERIS_TYPE": 0, "CLASSIFICATION_TYPE": "U", "NORAD_CAT_ID": 31226, "ELEMENT_SET_NO": 999, "REV_AT_EPOCH": 61968, "BSTAR": 0.00066349543, "MEAN_MOTION_DOT": 1.704e-05, "MEAN_MOTION_DDOT": 0}, "tle": {"line1": "1 31226U 99025BLG 25340.74810358  .00001704  00000+0  66350-3 0  9993", "line2": "2 31226  98.3501 340.8380 0126465 213.6965 145.6130 14.26675760619688"}}, "geometry": {"type": "Point", "coordinates": [-26.152658212115007, 44.63492109008858]}}]}